[{"OBJECT_NAME":"NUSAT-41 (C PAYNE-G)","OBJECT_ID":"2023-084N","EPOCH":"2026-03-09T21:55:54.837696","MEAN_MOTION":15.29680045,"ECCENTRICITY":0.00062175,"INCLINATION":97.5351,"RA_OF_ASC_NODE":204.1011,"ARG_OF_PERICENTER":322.2064,"MEAN_ANOMALY":37.8738,"EPHEMERIS_TYPE":0,"CLASSIFICATION_TYPE":"U","NORAD_CAT_ID":56944,"ELEMENT_SET_NO":999,"REV_AT_EPOCH":15260,"BSTAR":0.00059912824,"MEAN_MOTION_DOT":0.0001718,"MEAN_MOTION_DDOT":0},{"OBJECT_NAME":"STARLINK-32273","OBJECT_ID":"2024-209T","EPOCH":"2026-03-09T12:35:16.446624","MEAN_MOTION":15.30196803,"ECCENTRICITY":0.00013005,"INCLINATION":53.1605,"RA_OF_ASC_NODE":143.0238,"ARG_OF_PERICENTER":64.5828,"MEAN_ANOMALY":295.5308,"EPHEMERIS_TYPE":0,"CLASSIFICATION_TYPE":"U","NORAD_CAT_ID":61956,"ELEMENT_SET_NO":999,"REV_AT_EPOCH":7487,"BSTAR":0.00068061256,"MEAN_MOTION_DOT":0.0001985,"MEAN_MOTION_DDOT":0}]
